OBJECT_NAME,OBJECT_ID,EPOCH,MEAN_MOTION,ECCENTRICITY,INCLINATION,RA_OF_ASC_NODE,ARG_OF_PERICENTER,MEAN_ANOMALY,EPHEMERIS_TYPE,CLASSIFICATION_TYPE,NORAD_CAT_ID,ELEMENT_SET_NO,REV_AT_EPOCH,BSTAR,MEAN_MOTION_DOT,MEAN_MOTION_DDOT
SL-16 R/B,1994-077B,2026-07-15T22:50:10.277376,14.15574223,.0004088,70.9821,82.6484,302.7536,57.3192,0,U,23405,999,63438,.63539E-5,-.35E-6,0
ARIANE 40+ R/B,1995-021B,2026-07-16T03:58:00.471936,14.39847862,.0007926,98.4400,266.8199,113.9684,274.3151,0,U,23561,999,63773,.49576663E-4,.112E-5,0
SL-16 R/B,1995-058B,2026-07-16T04:14:24.167040,14.15509270,.00146217,71.0209,270.4949,281.5256,78.4225,0,U,23705,999,58603,.13650872E-3,.219E-5,0
SL-16 R/B,1996-051B,2026-07-16T05:00:52.177536,14.12456893,.00178661,70.7646,263.2318,296.7818,63.1473,0,U,24298,999,53979,.10986569E-3,.154E-5,0
ORBVIEW 2 (SEASTAR),1997-037A,2026-07-16T02:01:31.905120,14.35567014,.00030723,98.8714,4.9081,59.1766,300.9720,0,U,24883,999,52689,.4643904E-4,.87E-6,0
SL-16 R/B,1998-043G,2026-07-15T20:22:18.200064,14.26072774,.0009993,98.8379,151.2572,9.6080,350.5289,0,U,25400,999,45725,.17663715E-4,-.3E-7,0
SL-16 R/B,1998-045B,2026-07-16T04:41:03.908832,14.16205112,.00081307,71.0108,271.3256,205.1437,154.9291,0,U,25407,999,44529,-.54424513E-4,-.156E-5,0
ISS (ZARYA),1998-067A,2026-07-16T05:13:55.837632,15.49021242,.00067484,51.6313,156.4232,301.4056,58.6272,0,U,25544,999,57625,.72346184E-4,.354E-4,0
CZ-4B R/B,1999-025C,2026-07-16T02:59:53.235744,14.18287818,.00365861,98.6471,238.2330,337.0233,42.5941,0,U,25732,999,40637,.22978044E-4,.4E-7,0
OKEAN-O,1999-039A,2026-07-16T03:20:48.415200,14.80497993,.00008701,97.9301,255.6027,89.6470,270.4842,0,U,25860,999,45339,.40428886E-4,.257E-5,0
SL-16 R/B,1999-039B,2026-07-16T03:13:29.701920,14.81871285,.00143791,97.9823,255.9126,195.3328,164.7451,0,U,25861,999,45588,.34839279E-4,.222E-5,0
DELTA 2 R/B,1999-041E,2026-07-16T06:23:44.090592,14.12087498,.05014069,51.7611,147.6160,7.9199,352.9288,0,U,25876,999,38119,.21940862E-3,.1125E-4,0
HELIOS 1B,1999-064A,2026-07-16T03:51:05.759712,14.88076280,.00018743,98.1583,103.1360,53.1847,306.9540,0,U,25977,999,70436,.73735148E-4,.619E-5,0
TERRA,1999-068A,2026-07-16T06:14:21.679296,14.61124158,.00034584,97.9441,245.6512,120.5405,304.2363,0,U,25994,999,41385,.44041269E-4,.172E-5,0
SL-16 R/B,2000-006B,2026-07-16T04:09:26.389440,14.15837941,.00172179,71.0002,187.6765,338.6196,21.4205,0,U,26070,999,36674,-.21478731E-4,-.9E-6,0
TITAN 4B R/B,2000-047B,2026-07-16T03:12:45.963648,15.10335460,.00458071,67.9873,39.0846,257.8329,101.7688,0,U,26474,999,41230,.78410742E-4,.1177E-4,0
ENVISAT,2002-009A,2026-07-16T07:54:53.781696,14.39070874,.00013262,98.3847,148.0007,83.2140,67.1422,0,U,27386,999,27767,.19715609E-4,.18E-6,0
IDEFIX & ARIANE 42P R/B,2002-021B,2026-07-16T06:50:16.672416,14.31094008,.00119632,98.5942,134.4535,163.3030,196.8549,0,U,27422,999,26241,.47931479E-4,.83E-6,0
AQUA,2002-022A,2026-07-14T12:07:11.762400,14.62196472,.0000927,98.4295,165.3370,111.8770,0.7592,0,U,27424,999,28726,.80863616E-4,.358E-5,0
CZ-4B R/B,2002-024C,2026-07-16T04:06:34.317792,14.14568339,.00504201,98.8685,249.8008,19.2374,48.5191,0,U,27432,999,24740,.2321472E-4,.1E-7,0
MIDORI II (ADEOS-II),2002-056A,2026-07-15T21:48:20.233728,14.29363216,.0001445,98.7895,156.4153,40.1174,320.0114,0,U,27597,999,22861,.52232E-4,.88E-6,0
H-2A R/B,2002-056E,2026-07-16T04:07:13.137312,14.33834172,.00709358,98.3329,152.7922,138.0427,233.0431,0,U,27601,999,23252,.53079471E-4,.111E-5,0
CZ-4B R/B,2003-049C,2026-07-15T21:44:08.289600,14.55116335,.0047691,98.6910,196.8971,199.0637,160.8775,0,U,28059,999,20524,.40044E-4,.124E-5,0
CZ-2C R/B,2004-012C,2026-07-16T04:36:00.251712,15.85417619,.00111568,97.7046,276.3698,187.7372,172.3727,0,U,28222,999,22448,.41105923E-3,.99037E-3,0
SL-16 R/B,2004-021B,2026-07-15T19:11:26.685024,14.14616500,.00062869,71.0029,323.6400,224.6358,135.4259,0,U,28353,999,14095,.2738042E-5,-.42E-6,0
CZ-4B R/B,2004-035C,2026-07-16T02:09:33.872832,15.30998816,.00293095,97.3353,229.8433,229.3035,130.5659,0,U,28415,999,19954,.13308845E-3,.3958E-4,0
CZ-2C R/B,2004-046B,2026-07-16T05:16:44.010048,14.27033372,.01401843,98.1914,104.1822,134.3822,226.8942,0,U,28480,999,12683,.37321733E-4,.61E-6,0
ARIANE 5 R/B,2004-049H,2026-07-16T05:30:21.915648,14.85479406,.00826046,98.2742,10.6090,294.8829,64.3814,0,U,28499,999,16487,.28240765E-4,.192E-5,0
CZ-2D R/B,2005-024B,2026-07-16T07:47:04.762752,15.72846217,.00026192,97.3467,218.2783,189.5497,170.5717,0,U,28738,999,15991,.2972081E-3,.40167E-3,0
ALOS (DAICHI),2006-002A,2026-07-16T06:57:48.871008,14.70102943,.00008458,98.1339,152.7704,102.6449,257.4851,0,U,28931,999,9237,.82717215E-4,.447E-5,0
