SL-16 R/B               
1 23405U 94077B   26196.95150784 -.00000035  00000+0  63539-5 0  9993
2 23405  70.9821  82.6484 0004088 302.7536  57.3192 14.15574223634386
ARIANE 40+ R/B          
1 23561U 95021B   26197.16528324  .00000112  00000+0  49577-4 0  9999
2 23561  98.4400 266.8199 0007926 113.9684 274.3151 14.39847862637732
SL-16 R/B               
1 23705U 95058B   26197.17666860  .00000219  00000+0  13651-3 0  9999
2 23705  71.0209 270.4949 0014621 281.5256  78.4225 14.15509270586030
SL-16 R/B               
1 24298U 96051B   26197.20893724  .00000154  00000+0  10987-3 0  9993
2 24298  70.7646 263.2318 0017866 296.7818  63.1473 14.12456893539791
ORBVIEW 2 (SEASTAR)     
1 24883U 97037A   26197.08439705  .00000087  00000+0  46439-4 0  9996
2 24883  98.8714   4.9081 0003072  59.1766 300.9720 14.35567014526899
SL-16 R/B               
1 25400U 98043G   26196.84882176 -.00000003  00000+0  17664-4 0  9994
2 25400  98.8379 151.2572 0009993   9.6080 350.5289 14.26072774457258
SL-16 R/B               
1 25407U 98045B   26197.19518413 -.00000156  00000+0 -54425-4 0  9998
2 25407  71.0108 271.3256 0008130 205.1437 154.9291 14.16205112445295
ISS (ZARYA)             
1 25544U 98067A   26197.21800738  .00003540  00000+0  72346-4 0  9991
2 25544  51.6313 156.4232 0006748 301.4056  58.6272 15.49021242576253
CZ-4B R/B               
1 25732U 99025C   26197.12492171  .00000004  00000+0  22978-4 0  9991
2 25732  98.6471 238.2330 0036586 337.0233  42.5941 14.18287818406379
OKEAN-O                 
1 25860U 99039A   26197.13944925  .00000257  00000+0  40429-4 0  9999
2 25860  97.9301 255.6027 0000870  89.6470 270.4842 14.80497993453393
SL-16 R/B               
1 25861U 99039B   26197.13437155  .00000222  00000+0  34839-4 0  9992
2 25861  97.9823 255.9126 0014379 195.3328 164.7451 14.81871285455880
DELTA 2 R/B             
1 25876U 99041E   26197.26648253  .00001125  00000+0  21941-3 0  9990
2 25876  51.7611 147.6160 0501406   7.9199 352.9288 14.12087498381190
HELIOS 1B               
1 25977U 99064A   26197.16048333  .00000619  00000+0  73735-4 0  9995
2 25977  98.1583 103.1360 0001874  53.1847 306.9540 14.88076280704369
TERRA                   
1 25994U 99068A   26197.25997314  .00000172  00000+0  44041-4 0  9992
2 25994  97.9441 245.6512 0003458 120.5405 304.2363 14.61124158413852
SL-16 R/B               
1 26070U 00006B   26197.17322210 -.00000090  00000+0 -21479-4 0  9991
2 26070  71.0002 187.6765 0017217 338.6196  21.4205 14.15837941366744
TITAN 4B R/B            
1 26474U 00047B   26197.13386532  .00001177  00000+0  78411-4 0  9990
2 26474  67.9873  39.0846 0045807 257.8329 101.7688 15.10335460412304
ENVISAT                 
1 27386U 02009A   26197.32978914  .00000018  00000+0  19716-4 0  9991
2 27386  98.3847 148.0007 0001326  83.2140  67.1422 14.39070874277671
IDEFIX & ARIANE 42P R/B 
1 27422U 02021B   26197.28491519  .00000083  00000+0  47931-4 0  9994
2 27422  98.5942 134.4535 0011963 163.3030 196.8549 14.31094008262414
AQUA                    
1 27424U 02022A   26195.50499725  .00000358  00000+0  80864-4 0  9994
2 27424  98.4295 165.3370 0000927 111.8770   0.7592 14.62196472287266
CZ-4B R/B               
1 27432U 02024C   26197.17123053  .00000001  00000+0  23215-4 0  9990
2 27432  98.8685 249.8008 0050420  19.2374  48.5191 14.14568339247401
MIDORI II (ADEOS-II)    
1 27597U 02056A   26196.90856752  .00000088  00000+0  52232-4 0  9992
2 27597  98.7895 156.4153 0001445  40.1174 320.0114 14.29363216228611
H-2A R/B                
1 27601U 02056E   26197.17167983  .00000111  00000+0  53079-4 0  9996
2 27601  98.3329 152.7922 0070935 138.0427 233.0431 14.33834172232525
CZ-4B R/B               
1 28059U 03049C   26196.90565150  .00000124  00000+0  40044-4 0  9997
2 28059  98.6910 196.8971 0047691 199.0637 160.8775 14.55116335205243
CZ-2C R/B               
1 28222U 04012C   26197.19166958  .00099037  00000+0  41106-3 0  9995
2 28222  97.7046 276.3698 0011156 187.7372 172.3727 15.85417619224487
SL-16 R/B               
1 28353U 04021B   26196.79961441 -.00000042  00000+0  27380-5 0  9994
2 28353  71.0029 323.6400 0006286 224.6358 135.4259 14.14616500140958
CZ-4B R/B               
1 28415U 04035C   26197.08997538  .00003958  00000+0  13309-3 0  9999
2 28415  97.3353 229.8433 0029309 229.3035 130.5659 15.30998816199547
CZ-2C R/B               
1 28480U 04046B   26197.21995382  .00000061  00000+0  37322-4 0  9997
2 28480  98.1914 104.1822 0140184 134.3822 226.8942 14.27033372126830
ARIANE 5 R/B            
1 28499U 04049H   26197.22942032  .00000192  00000+0  28241-4 0  9990
2 28499  98.2742  10.6090 0082604 294.8829  64.3814 14.85479406164874
CZ-2D R/B               
1 28738U 05024B   26197.32436068  .00040167  00000+0  29721-3 0  9997
2 28738  97.3467 218.2783 0002619 189.5497 170.5717 15.72846217159914
ALOS (DAICHI)           
1 28931U 06002A   26197.29014897  .00000447  00000+0  82717-4 0  9999
2 28931  98.1339 152.7704 0000845 102.6449 257.4851 14.70102943 92371
